NEE-02 KRYSAOR          
1 39441U 13066AB  26087.76773116  .00003667  00000+0  40702-3 0  9995
2 39441  97.8832  27.6007 0065930 334.7799  25.0201 14.86287699664250
